{
    "links": {
        "self": "http://www.neowsapp.com/rest/v1/neo/3843353?api_key=iIulBulltgU6a56xZRHN4H3l9WmuAYTsLGpBGhQ2"
    },
    "id": "3843353",
    "neo_reference_id": "3843353",
    "name": "(2019 OY)",
    "designation": "2019 OY",
    "nasa_jpl_url": "http://ssd.jpl.nasa.gov/sbdb.cgi?sstr=3843353",
    "absolute_magnitude_h": 24.0,
    "estimated_diameter": {
        "kilometers": {
            "estimated_diameter_min": 0.0421264611,
            "estimated_diameter_max": 0.0941976306
        },
        "meters": {
            "estimated_diameter_min": 42.1264610556,
            "estimated_diameter_max": 94.1976305719
        },
        "miles": {
            "estimated_diameter_min": 0.0261761612,
            "estimated_diameter_max": 0.0585316759
        },
        "feet": {
            "estimated_diameter_min": 138.2101784897,
            "estimated_diameter_max": 309.0473542854
        }
    },
    "is_potentially_hazardous_asteroid": false,
    "close_approach_data": [
        {
            "close_approach_date": "2013-08-23",
            "close_approach_date_full": "2013-Aug-23 11:44",
            "epoch_date_close_approach": 1377258240000,
            "relative_velocity": {
                "kilometers_per_second": "3.0369748864",
                "kilometers_per_hour": "10933.1095911982",
                "miles_per_hour": "6793.4091234864"
            },
            "miss_distance": {
                "astronomical": "1.8947582896",
                "lunar": "737.0609746544",
                "kilometers": "283451804.289003152",
                "miles": "176128783.9849494176"
            },
            "orbiting_body": "Juptr"
        },
        {
            "close_approach_date": "2019-08-07",
            "close_approach_date_full": "2019-Aug-07 11:01",
            "epoch_date_close_approach": 1565175660000,
            "relative_velocity": {
                "kilometers_per_second": "8.2645449497",
                "kilometers_per_hour": "29752.3618188144",
                "miles_per_hour": "18486.9605979183"
            },
            "miss_distance": {
                "astronomical": "0.1343107778",
                "lunar": "52.2468925642",
                "kilometers": "20092606.276923286",
                "miles": "12484966.6048859068"
            },
            "orbiting_body": "Earth"
        },
        {
            "close_approach_date": "2157-04-06",
            "close_approach_date_full": "2157-Apr-06 06:24",
            "epoch_date_close_approach": 5909437440000,
            "relative_velocity": {
                "kilometers_per_second": "2.7762078815",
                "kilometers_per_hour": "9994.3483734046",
                "miles_per_hour": "6210.0994101302"
            },
            "miss_distance": {
                "astronomical": "1.751345812",
                "lunar": "681.273520868",
                "kilometers": "261997603.10862044",
                "miles": "162797761.539184472"
            },
            "orbiting_body": "Juptr"
        },
        {
            "close_approach_date": "2168-06-23",
            "close_approach_date_full": "2168-Jun-23 03:54",
            "epoch_date_close_approach": 6263322840000,
            "relative_velocity": {
                "kilometers_per_second": "2.675315314",
                "kilometers_per_hour": "9631.1351303459",
                "miles_per_hour": "5984.412825853"
            },
            "miss_distance": {
                "astronomical": "1.5243397345",
                "lunar": "592.9681567205",
                "kilometers": "228037977.437565515",
                "miles": "141696228.638273507"
            },
            "orbiting_body": "Juptr"
        },
        {
            "close_approach_date": "2170-06-16",
            "close_approach_date_full": "2170-Jun-16 10:02",
            "epoch_date_close_approach": 6325812120000,
            "relative_velocity": {
                "kilometers_per_second": "16.698960269",
                "kilometers_per_hour": "60116.2569684058",
                "miles_per_hour": "37353.9042257297"
            },
            "miss_distance": {
                "astronomical": "0.4379736414",
                "lunar": "170.3717465046",
                "kilometers": "65519923.869583818",
                "miles": "40712192.8430919684"
            },
            "orbiting_body": "Earth"
        }
    ],
    "orbital_data": {
        "orbit_id": "2",
        "orbit_determination_date": "2019-08-28 05:50:44",
        "first_observation_date": "2019-06-28",
        "last_observation_date": "2019-08-28",
        "data_arc_in_days": 61,
        "observations_used": 18,
        "orbit_uncertainty": "6",
        "minimum_orbit_intersection": ".0907212",
        "jupiter_tisserand_invariant": "3.287",
        "epoch_osculation": "2459000.5",
        "eccentricity": ".544338673513889",
        "semi_major_axis": "2.423844841608678",
        "inclination": "5.319297811969647",
        "ascending_node_longitude": "130.6882736250614",
        "orbital_period": "1378.337749013886",
        "perihelion_distance": "1.104452355723928",
        "perihelion_argument": "168.324043168324",
        "aphelion_distance": "3.743237327493428",
        "perihelion_time": "2458693.122812017499",
        "mean_anomaly": "80.28205550698131",
        "mean_motion": ".2611841693065123",
        "equinox": "J2000",
        "orbit_class": {
            "orbit_class_type": "AMO",
            "orbit_class_description": "Near-Earth asteroid orbits similar to that of 1221 Amor",
            "orbit_class_range": "1.017 AU < q (perihelion) < 1.3 AU"
        }
    },
    "is_sentry_object": false
}